STARLINK-1039
1 44744U 19074AH  26090.47313003  .00045000  00000+0  18645-2 0  9996
2 44744  53.0589 114.8316 0001083 341.5875  18.5082 15.23489747351670
